NORAD_CAT_ID,OBJECT_NAME,OBJECT_TYPE,EPOCH,MEAN_MOTION,ECCENTRICITY,INCLINATION,RA_OF_ASC_NODE,ARG_OF_PERICENTER,MEAN_ANOMALY,BSTAR,MEAN_MOTION_DOT,MEAN_MOTION_DDOT,TLE_LINE0,TLE_LINE1,TLE_LINE2,SEMIMAJOR_AXIS,PERIOD,APOGEE,PERIGEE,DECAYED
53616.0,STARLINK-4605,PAYLOAD,2023-05-19 07:12:40,15.08840196,0.0001264,53.2153,147.2695,92.0151,268.0986,2.9637e-05,1.84e-06,0.0,0 STARLINK-4605,1 53616U 22104AE  23139.30047191  .00000184  00000-0  29637-4 0  9997,2 53616  53.2153 147.2695 0001264  92.0151 268.0986 15.08840196 41081,6917.88,95.438,540.619,538.87,0.0
53616.0,STARLINK-4605,PAYLOAD,2023-05-20 03:52:41,15.08837701,0.0001258,53.2155,143.4033,92.3056,267.808,2.0884e-05,4.4e-07,0.0,0 STARLINK-4605,1 53616U 22104AE  23140.16159494  .00000044  00000-0  20884-4 0  9993,2 53616  53.2155 143.4033 0001258  92.3056 267.8080 15.08837701 40536,6917.887,95.438,540.623,538.882,0.0
53616.0,STARLINK-4605,PAYLOAD,2023-05-20 16:35:46,15.08838883,0.0001258,53.2156,141.0243,91.4994,268.6143,2.2706e-05,7.4e-07,0.0,0 STARLINK-4605,1 53616U 22104AE  23140.69151471  .00000074  00000-0  22706-4 0  9996,2 53616  53.2156 141.0243 0001258  91.4994 268.6143 15.08838883 41290,6917.884,95.438,540.619,538.879,0.0
53616.0,STARLINK-4605,PAYLOAD,2023-05-21 06:54:14,15.08844584,0.0001197,53.2153,138.3493,89.4487,270.6642,0.00010251,1.344e-05,0.0,0 STARLINK-4605,1 53616U 22104AE  23141.28766854  .00001344  00000-0  10251-3 0  9991,2 53616  53.2153 138.3493 0001197  89.4487 270.6642 15.08844584 40706,6917.866,95.437,540.559,538.903,0.0
53616.0,STARLINK-4605,PAYLOAD,2023-05-21 16:26:34,15.08835471,0.0001176,53.2149,136.5653,86.6398,273.4728,4.3471e-05,4.04e-06,0.0,0 STARLINK-4605,1 53616U 22104AE  23141.68511630  .00000404  00000-0  43471-4 0  9992,2 53616  53.2149 136.5653 0001176  86.6398 273.4728 15.08835471 40763,6917.894,95.438,540.573,538.946,0.0
53616.0,STARLINK-4605,PAYLOAD,2023-05-22 06:45:02,15.08832024,0.0001351,53.2161,133.8913,102.0486,258.0658,-3.1762e-06,-3.38e-06,0.0,0 STARLINK-4605,1 53616U 22104AE  23142.28128283 -.00000338  00000-0 -31762-5 0  9996,2 53616  53.2161 133.8913 0001351 102.0486 258.0658 15.08832024 41530,6917.905,95.438,540.704,538.835,0.0
53616.0,STARLINK-4605,PAYLOAD,2023-05-22 16:17:21,15.08835014,0.0001366,53.2163,132.1067,100.1645,259.9502,1.2329e-05,-9.2e-07,0.0,0 STARLINK-4605,1 53616U 22104AE  23142.67872204 -.00000092  00000-0  12329-4 0  9991,2 53616  53.2163 132.1067 0001366 100.1645 259.9502 15.08835014 41592,6917.896,95.438,540.706,538.816,0.0
53616.0,STARLINK-4605,PAYLOAD,2023-05-23 08:11:12,15.08841127,0.000126,53.2155,129.1318,96.9262,263.1873,1.7907e-05,-3e-08,0.0,0 STARLINK-4605,1 53616U 22104AE  23143.34111884 -.00000003  00000-0  17907-4 0  9995,2 53616  53.2155 129.1318 0001260  96.9262 263.1873 15.08841127 41015,6917.877,95.437,540.614,538.87,0.0
53616.0,STARLINK-4605,PAYLOAD,2023-05-24 08:01:59,15.08841391,0.0001204,53.2156,124.6697,96.7854,263.3275,0.00013361,1.839e-05,0.0,0 STARLINK-4605,1 53616U 22104AE  23144.33471707  .00001839  00000-0  13361-3 0  9994,2 53616  53.2156 124.6697 0001204  96.7854 263.3275 15.08841391 41841,6917.876,95.437,540.574,538.908,0.0
53616.0,STARLINK-4605,PAYLOAD,2023-05-26 04:32:47,15.08844659,0.0001306,53.2159,116.3419,100.934,259.1799,5.6457e-05,6.11e-06,0.0,0 STARLINK-4605,1 53616U 22104AE  23146.18943712  .00000611  00000-0  56457-4 0  9990,2 53616  53.2159 116.3419 0001306 100.9340 259.1799 15.08844659 41445,6917.866,95.437,540.635,538.828,0.0
53616.0,STARLINK-4605,PAYLOAD,2023-05-27 04:23:35,15.0883599,0.0001257,53.2159,111.8846,86.4643,273.6493,1.0078e-06,-2.72e-06,0.0,0 STARLINK-4605,1 53616U 22104AE  23147.18304627 -.00000272  00000-0  10078-5 0  9991,2 53616  53.2159 111.8846 0001257  86.4643 273.6493 15.08835990 41594,6917.893,95.438,540.627,538.888,0.0
53616.0,STARLINK-4605,PAYLOAD,2023-05-27 07:34:21,15.0883652,0.0001235,53.2156,111.2894,85.473,274.6404,8.1818e-06,-1.58e-06,0.0,0 STARLINK-4605,1 53616U 22104AE  23147.31552581 -.00000158  00000-0  81818-5 0  9993,2 53616  53.2156 111.2894 0001235  85.4730 274.6404 15.08836520 42291,6917.891,95.438,540.61,538.902,0.0
53616.0,STARLINK-4605,PAYLOAD,2023-05-28 02:38:58,15.08844386,0.0001143,53.2155,107.7209,81.6177,278.4945,1.4194e-05,-6.2e-07,0.0,0 STARLINK-4605,1 53616U 22104AE  23148.11040128 -.00000062  00000-0  14194-4 0  9997,2 53616  53.2155 107.7209 0001143  81.6177 278.4945 15.08844386 41730,6917.867,95.437,540.523,538.941,0.0
53616.0,STARLINK-4605,PAYLOAD,2023-05-28 04:14:21,15.08846469,0.0001141,53.2153,107.4233,83.7201,276.3922,2.954e-05,1.82e-06,0.0,0 STARLINK-4605,1 53616U 22104AE  23148.17663950  .00000182  00000-0  29540-4 0  9990,2 53616  53.2153 107.4233 0001141  83.7201 276.3922 15.08846469 42424,6917.861,95.437,540.515,538.936,0.0
53616.0,STARLINK-4605,PAYLOAD,2023-05-28 20:08:13,15.08840244,0.000117,53.216,104.4514,86.2272,273.8854,5.9523e-05,6.6e-06,0.0,0 STARLINK-4605,1 53616U 22104AE  23148.83904272  .00000660  00000-0  59523-4 0  9993,2 53616  53.2160 104.4514 0001170  86.2272 273.8854 15.08840244 42521,6917.88,95.438,540.554,538.935,0.0
53616.0,STARLINK-4605,PAYLOAD,2023-05-29 04:05:08,15.08842109,0.0001138,53.2162,102.9632,93.0911,267.0211,5.2191e-05,5.43e-06,0.0,0 STARLINK-4605,1 53616U 22104AE  23149.17024147  .00000543  00000-0  52191-4 0  9999,2 53616  53.2162 102.9632 0001138  93.0911 267.0211 15.08842109 41890,6917.874,95.437,540.526,538.952,0.0
53616.0,STARLINK-4605,PAYLOAD,2023-05-30 00:45:10,15.08837081,0.0001069,53.2158,99.0976,93.1354,266.976,-0.00012713,-2.31e-05,0.0,0 STARLINK-4605,1 53616U 22104AE  23150.03137299 -.00002310  00000-0 -12713-3 0  9990,2 53616  53.2158  99.0976 0001069  93.1354 266.9760 15.08837081 42023,6917.889,95.438,540.494,539.015,0.0
53616.0,STARLINK-4605,PAYLOAD,2023-05-30 05:31:20,15.08806903,0.0001299,53.216,98.2058,92.0737,268.0404,0.00031229,4.681e-05,0.0,0 STARLINK-4605,1 53616U 22104AE  23150.23009720  .00004681  00000-0  31229-3 0  9993,2 53616  53.2160  98.2058 0001299  92.0737 268.0404 15.08806903 42056,6917.982,95.44,540.745,538.948,0.0
53616.0,STARLINK-4605,PAYLOAD,2023-05-31 02:11:19,15.08844478,0.0001093,53.216,94.3397,92.454,267.6577,8.0319e-05,9.91e-06,0.0,0 STARLINK-4605,1 53616U 22104AE  23151.09120219  .00000991  00000-0  80319-4 0  9990,2 53616  53.2160  94.3397 0001093  92.4540 267.6577 15.08844478 42186,6917.867,95.437,540.488,538.976,0.0
53616.0,STARLINK-4605,PAYLOAD,2023-05-31 05:22:05,15.08849032,0.0001136,53.2158,93.7451,94.2333,265.8789,0.00012305,1.672e-05,0.0,0 STARLINK-4605,1 53616U 22104AE  23151.22367784  .00001672  00000-0  12305-3 0  9991,2 53616  53.2158  93.7451 0001136  94.2333 265.8789 15.08849032 42888,6917.853,95.437,540.504,538.932,0.0
53616.0,STARLINK-4605,PAYLOAD,2023-06-01 02:02:07,15.08831844,0.0001155,53.2165,89.8768,106.3271,253.7848,4.6913e-05,4.59e-06,0.0,0 STARLINK-4605,1 53616U 22104AE  23152.08481142  .00000459  00000-0  46913-4 0  9996,2 53616  53.2165  89.8768 0001155 106.3271 253.7848 15.08831844 42334,6917.905,95.438,540.569,538.971,0.0
53616.0,STARLINK-4605,PAYLOAD,2023-06-01 05:12:53,15.08839379,0.0001325,53.2173,89.2819,100.0027,260.1115,9.7814e-05,1.269e-05,0.0,0 STARLINK-4605,1 53616U 22104AE  23152.21728614  .00001269  00000-0  97814-4 0  9995,2 53616  53.2173  89.2819 0001325 100.0027 260.1115 15.08839379 43031,6917.882,95.438,540.664,538.831,0.0
53616.0,STARLINK-4605,PAYLOAD,2023-06-02 05:03:40,15.08844701,0.0001419,53.218,84.8195,98.6023,261.513,-3.5922e-05,-8.6e-06,0.0,0 STARLINK-4605,1 53616U 22104AE  23153.21088692 -.00000860  00000-0 -35922-4 0  9991,2 53616  53.2180  84.8195 0001419  98.6023 261.5130 15.08844701 43182,6917.866,95.437,540.713,538.749,0.0
53616.0,STARLINK-4605,PAYLOAD,2023-06-03 01:43:41,15.08835489,0.0001508,53.2182,80.9536,105.5684,254.5474,1.4966e-05,-5e-07,0.0,0 STARLINK-4605,1 53616U 22104AE  23154.07201304 -.00000050  00000-0  14966-4 0  9998,2 53616  53.2182  80.9536 0001508 105.5684 254.5474 15.08835489 42635,6917.894,95.438,540.802,538.716,0.0
53616.0,STARLINK-4605,PAYLOAD,2023-06-03 04:54:28,15.08836302,0.0001445,53.2179,80.3598,102.2572,257.8582,4.5839e-06,-2.15e-06,0.0,0 STARLINK-4605,1 53616U 22104AE  23154.20449341 -.00000215  00000-0  45839-5 0  9995,2 53616  53.2179  80.3598 0001445 102.2572 257.8582 15.08836302 43332,6917.892,95.438,540.756,538.757,0.0
53616.0,STARLINK-4605,PAYLOAD,2023-06-04 04:45:14,15.08856294,0.0001353,53.2174,75.9007,85.71,274.4047,-4.555e-05,-1.013e-05,0.0,0 STARLINK-4605,1 53616U 22104AE  23155.19808376 -.00001013  00000-0 -45550-4 0  9998,2 53616  53.2174  75.9007 0001353  85.7100 274.4047 15.08856294 42806,6917.831,95.437,540.632,538.76,0.0
53616.0,STARLINK-4605,PAYLOAD,2023-06-04 19:03:43,15.08834373,0.0001003,53.2173,73.2248,87.9601,272.1506,5.6672e-06,-1.98e-06,0.0,0 STARLINK-4605,1 53616U 22104AE  23155.79425614 -.00000198  00000-0  56672-5 0  9994,2 53616  53.2173  73.2248 0001003  87.9601 272.1506 15.08834373 42893,6917.898,95.438,540.456,539.069,0.0
53616.0,STARLINK-4605,PAYLOAD,2023-06-04 22:14:29,15.08838669,0.0001227,53.2169,72.6287,95.5965,264.5167,3.6812e-05,2.98e-06,0.0,0 STARLINK-4605,1 53616U 22104AE  23155.92673252  .00000298  00000-0  36812-4 0  9995,2 53616  53.2169  72.6287 0001227  95.5965 264.5167 15.08838669 43598,6917.884,95.438,540.598,538.901,0.0
53616.0,STARLINK-4605,PAYLOAD,2023-06-05 04:36:01,15.08844677,0.0001211,53.2169,71.4417,88.9025,271.2106,8.4885e-05,1.064e-05,0.0,0 STARLINK-4605,1 53616U 22104AE  23156.19168753  .00001064  00000-0  84885-4 0  9995,2 53616  53.2169  71.4417 0001211  88.9025 271.2106 15.08844677 42959,6917.866,95.437,540.569,538.893,0.0
53616.0,STARLINK-4605,PAYLOAD,2023-06-05 10:57:34,15.08839803,0.000118,53.2166,70.2522,85.8815,274.2312,3.3882e-05,2.51e-06,0.0,0 STARLINK-4605,1 53616U 22104AE  23156.45665215  .00000251  00000-0  33882-4 0  9997,2 53616  53.2166  70.2522 0001180  85.8815 274.2312 15.08839803 43675,6917.881,95.438,540.562,538.93,0.0
